{"type":"FeatureCollection","features":[{"type":"Feature","geometry":{"type":"Point","coordinates":[107.00520646000007,-6.350935191999952,0]},"properties":{}},{"type":"Feature","geometry":{"type":"Point","coordinates":[107.00494127900004,-6.343469993999975,0]},"properties":{}},{"type":"Feature","geometry":{"type":"Point","coordinates":[107.00604567700009,-6.344843169999933,0]},"properties":{}},{"type":"Feature","geometry":{"type":"Point","coordinates":[107.00408049600009,-6.327623403999951,0]},"properties":{}},{"type":"Feature","geometry":{"type":"Point","coordinates":[107.00143273800006,-6.3335546979999435,0]},"properties":{}},{"type":"Feature","geometry":{"type":"Point","coordinates":[107.03155567900006,-6.320497608999972,0]},"properties":{}},{"type":"Feature","geometry":{"type":"Point","coordinates":[107.02742447000008,-6.321504136999977,0]},"properties":{}},{"type":"Feature","geometry":{"type":"Point","coordinates":[107.04215099300006,-6.309346234999964,0]},"properties":{}},{"type":"Feature","geometry":{"type":"Point","coordinates":[107.00965847200007,-6.316427216999955,0]},"properties":{}},{"type":"Feature","geometry":{"type":"Point","coordinates":[107.00926744000009,-6.315289139999948,0]},"properties":{}},{"type":"Feature","geometry":{"type":"Point","coordinates":[107.03066236200004,-6.306807429999935,0]},"properties":{}},{"type":"Feature","geometry":{"type":"Point","coordinates":[107.02940283700008,-6.298587520999945,0]},"properties":{}},{"type":"Feature","geometry":{"type":"Point","coordinates":[107.03217911700006,-6.297025703999964,0]},"properties":{}},{"type":"Feature","geometry":{"type":"Point","coordinates":[107.03072149800005,-6.294319276999943,0]},"properties":{}},{"type":"Feature","geometry":{"type":"Point","coordinates":[107.00025285800007,-6.295513481999933,0]},"properties":{}},{"type":"Feature","geometry":{"type":"Point","coordinates":[107.00370545700008,-6.286069522999981,0]},"properties":{}},{"type":"Feature","geometry":{"type":"Point","coordinates":[107.00919271700008,-6.290548498999954,0]},"properties":{}},{"type":"Feature","geometry":{"type":"Point","coordinates":[107.02226265700006,-6.2899597839999615,0]},"properties":{}},{"type":"Feature","geometry":{"type":"Point","coordinates":[107.00562042700005,-6.274370731999966,0]},"properties":{}},{"type":"Feature","geometry":{"type":"Point","coordinates":[107.00669071800007,-6.267045951999933,0]},"properties":{}},{"type":"Feature","geometry":{"type":"Point","coordinates":[107.00586064200007,-6.258329019999962,0]},"properties":{}},{"type":"Feature","geometry":{"type":"Point","coordinates":[107.00836944900004,-6.265803198999947,0]},"properties":{}},{"type":"Feature","geometry":{"type":"Point","coordinates":[107.00468025200007,-6.26358957399998,0]},"properties":{}},{"type":"Feature","geometry":{"type":"Point","coordinates":[107.00483519400007,-6.260486000999947,0]},"properties":{}},{"type":"Feature","geometry":{"type":"Point","coordinates":[107.01740741700007,-6.225859935999949,0]},"properties":{}},{"type":"Feature","geometry":{"type":"Point","coordinates":[107.02138835400007,-6.232994547999965,0]},"properties":{}},{"type":"Feature","geometry":{"type":"Point","coordinates":[107.02054563400009,-6.233631713999955,0]},"properties":{}},{"type":"Feature","geometry":{"type":"Point","coordinates":[107.02028734800007,-6.234152363999954,0]},"properties":{}},{"type":"Feature","geometry":{"type":"Point","coordinates":[107.01625340000004,-6.233057608999957,0]},"properties":{}},{"type":"Feature","geometry":{"type":"Point","coordinates":[107.01226563400007,-6.241557960999955,0]},"properties":{}},{"type":"Feature","geometry":{"type":"Point","coordinates":[107.00828994600005,-6.23744015099993,0]},"properties":{}},{"type":"Feature","geometry":{"type":"Point","coordinates":[107.00854825500005,-6.238511582999934,0]},"properties":{}},{"type":"Feature","geometry":{"type":"Point","coordinates":[107.00878832400008,-6.235931604999962,0]},"properties":{}},{"type":"Feature","geometry":{"type":"Point","coordinates":[107.00862072700005,-6.233935587999952,0]},"properties":{}},{"type":"Feature","geometry":{"type":"Point","coordinates":[107.00775229500005,-6.233899840999925,0]},"properties":{}},{"type":"Feature","geometry":{"type":"Point","coordinates":[107.00906799300009,-6.2331929919999425,0]},"properties":{}},{"type":"Feature","geometry":{"type":"Point","coordinates":[107.00993991700005,-6.231678773999931,0]},"properties":{}},{"type":"Feature","geometry":{"type":"Point","coordinates":[107.01025499500008,-6.231288547999952,0]},"properties":{}},{"type":"Feature","geometry":{"type":"Point","coordinates":[107.00330781500008,-6.229683846999933,0]},"properties":{}},{"type":"Feature","geometry":{"type":"Point","coordinates":[107.00466941600007,-6.2295741609999595,0]},"properties":{}},{"type":"Feature","geometry":{"type":"Point","coordinates":[107.00588612900003,-6.22611595099994,0]},"properties":{}},{"type":"Feature","geometry":{"type":"Point","coordinates":[107.00658641300004,-6.22783872399998,0]},"properties":{}},{"type":"Feature","geometry":{"type":"Point","coordinates":[107.01054762300004,-6.227825269999926,0]},"properties":{}},{"type":"Feature","geometry":{"type":"Point","coordinates":[107.01015708100005,-6.229441981999969,0]},"properties":{}},{"type":"Feature","geometry":{"type":"Point","coordinates":[107.01264339800008,-6.22628495999993,0]},"properties":{}},{"type":"Feature","geometry":{"type":"Point","coordinates":[107.01440877300007,-6.226355160999958,0]},"properties":{}},{"type":"Feature","geometry":{"type":"Point","coordinates":[107.01951490300007,-6.229992795999976,0]},"properties":{}},{"type":"Feature","geometry":{"type":"Point","coordinates":[107.03537328300007,-6.229473740999936,0]},"properties":{}},{"type":"Feature","geometry":{"type":"Point","coordinates":[107.03084790100007,-6.218001953999931,0]},"properties":{}},{"type":"Feature","geometry":{"type":"Point","coordinates":[107.02964042900004,-6.2188058789999445,0]},"properties":{}},{"type":"Feature","geometry":{"type":"Point","coordinates":[107.02934453400007,-6.2175023559999545,0]},"properties":{}},{"type":"Feature","geometry":{"type":"Point","coordinates":[107.02780992400005,-6.214057962999959,0]},"properties":{}},{"type":"Feature","geometry":{"type":"Point","coordinates":[107.02619054500008,-6.216029164999952,0]},"properties":{}},{"type":"Feature","geometry":{"type":"Point","coordinates":[107.02468904900007,-6.219487740999966,0]},"properties":{}},{"type":"Feature","geometry":{"type":"Point","coordinates":[107.02224788500007,-6.222115461999977,0]},"properties":{}},{"type":"Feature","geometry":{"type":"Point","coordinates":[107.02091705300006,-6.222300376999954,0]},"properties":{}},{"type":"Feature","geometry":{"type":"Point","coordinates":[107.02106748900007,-6.221690456999966,0]},"properties":{}},{"type":"Feature","geometry":{"type":"Point","coordinates":[107.02111905000004,-6.221306029999937,0]},"properties":{}},{"type":"Feature","geometry":{"type":"Point","coordinates":[107.02222021200004,-6.221635506999974,0]},"properties":{}},{"type":"Feature","geometry":{"type":"Point","coordinates":[107.01724840700007,-6.22114598099995,0]},"properties":{}},{"type":"Feature","geometry":{"type":"Point","coordinates":[107.00405135600005,-6.210706445999961,0]},"properties":{}},{"type":"Feature","geometry":{"type":"Point","coordinates":[107.00324711600007,-6.2108653559999425,0]},"properties":{}},{"type":"Feature","geometry":{"type":"Point","coordinates":[107.02740136300008,-6.212464933999968,0]},"properties":{}},{"type":"Feature","geometry":{"type":"Point","coordinates":[107.02673181100005,-6.212263451999945,0]},"properties":{}},{"type":"Feature","geometry":{"type":"Point","coordinates":[107.02812312600008,-6.205465674999971,0]},"properties":{}},{"type":"Feature","geometry":{"type":"Point","coordinates":[107.02806086700008,-6.204823663999946,0]},"properties":{}},{"type":"Feature","geometry":{"type":"Point","coordinates":[107.02725435400004,-6.204806229999974,0]},"properties":{}},{"type":"Feature","geometry":{"type":"Point","coordinates":[107.02853955700004,-6.200048983999977,0]},"properties":{}},{"type":"Feature","geometry":{"type":"Point","coordinates":[107.01368941600003,-6.199946147999981,0]},"properties":{}},{"type":"Feature","geometry":{"type":"Point","coordinates":[107.00119119500005,-6.176077780999947,0]},"properties":{}},{"type":"Feature","geometry":{"type":"Point","coordinates":[107.00730249600008,-6.249801398999978,0]},"properties":{}},{"type":"Feature","geometry":{"type":"Point","coordinates":[107.00797580100004,-6.249859762999961,0]},"properties":{}},{"type":"Feature","geometry":{"type":"Point","coordinates":[107.00891364700004,-6.249422674999948,0]},"properties":{}},{"type":"Feature","geometry":{"type":"Point","coordinates":[107.02492358100005,-6.246667676999948,0]},"properties":{}},{"type":"Feature","geometry":{"type":"Point","coordinates":[107.02423541900004,-6.24029311299995,0]},"properties":{}},{"type":"Feature","geometry":{"type":"Point","coordinates":[107.02453460600009,-6.239931509999963,0]},"properties":{}},{"type":"Feature","geometry":{"type":"Point","coordinates":[107.02479260400008,-6.239525223999976,0]},"properties":{}},{"type":"Feature","geometry":{"type":"Point","coordinates":[107.02454614700008,-6.2405606979999675,0]},"properties":{}},{"type":"Feature","geometry":{"type":"Point","coordinates":[107.02179659200004,-6.233719944999962,0]},"properties":{}},{"type":"Feature","geometry":{"type":"Point","coordinates":[106.93802301300008,-6.3244707459999745,0]},"properties":{}},{"type":"Feature","geometry":{"type":"Point","coordinates":[106.91154938300008,-6.265655132999939,0]},"properties":{}},{"type":"Feature","geometry":{"type":"Point","coordinates":[106.91065279700007,-6.2655812779999565,0]},"properties":{}},{"type":"Feature","geometry":{"type":"Point","coordinates":[106.91230157200005,-6.2710584429999585,0]},"properties":{}},{"type":"Feature","geometry":{"type":"Point","coordinates":[106.91995063200005,-6.268403178999961,0]},"properties":{}},{"type":"Feature","geometry":{"type":"Point","coordinates":[106.93415551300006,-6.285088594999934,0]},"properties":{}},{"type":"Feature","geometry":{"type":"Point","coordinates":[106.92402434900004,-6.2793374279999625,0]},"properties":{}},{"type":"Feature","geometry":{"type":"Point","coordinates":[106.92105760700008,-6.278750068999955,0]},"properties":{}},{"type":"Feature","geometry":{"type":"Point","coordinates":[106.91233763900004,-6.2822823339999445,0]},"properties":{}},{"type":"Feature","geometry":{"type":"Point","coordinates":[106.91507410900005,-6.289074332999974,0]},"properties":{}},{"type":"Feature","geometry":{"type":"Point","coordinates":[106.92119893800009,-6.28729993099995,0]},"properties":{}},{"type":"Feature","geometry":{"type":"Point","coordinates":[106.92255944100003,-6.296390032999966,0]},"properties":{}},{"type":"Feature","geometry":{"type":"Point","coordinates":[106.93135292300008,-6.304065978999972,0]},"properties":{}},{"type":"Feature","geometry":{"type":"Point","coordinates":[106.93030812500007,-6.302243259999955,0]},"properties":{}},{"type":"Feature","geometry":{"type":"Point","coordinates":[106.92668949600005,-6.339401914999939,0]},"properties":{}},{"type":"Feature","geometry":{"type":"Point","coordinates":[106.92819679900003,-6.342487578999965,0]},"properties":{}},{"type":"Feature","geometry":{"type":"Point","coordinates":[106.92011324600008,-6.345237373999964,0]},"properties":{}},{"type":"Feature","geometry":{"type":"Point","coordinates":[106.93734106800008,-6.363205652999966,0]},"properties":{}},{"type":"Feature","geometry":{"type":"Point","coordinates":[106.92206253600006,-6.363752131999945,0]},"properties":{}},{"type":"Feature","geometry":{"type":"Point","coordinates":[106.94099906200006,-6.26865358799995,0]},"properties":{}},{"type":"Feature","geometry":{"type":"Point","coordinates":[106.95027346800003,-6.26583487299996,0]},"properties":{}},{"type":"Feature","geometry":{"type":"Point","coordinates":[106.94739227900004,-6.260514496999974,0]},"properties":{}},{"type":"Feature","geometry":{"type":"Point","coordinates":[106.96136238100007,-6.265130357999965,0]},"properties":{}},{"type":"Feature","geometry":{"type":"Point","coordinates":[106.97427589000006,-6.266099918999942,0]},"properties":{}},{"type":"Feature","geometry":{"type":"Point","coordinates":[106.98619643400008,-6.265360111999939,0]},"properties":{}},{"type":"Feature","geometry":{"type":"Point","coordinates":[106.99692234400004,-6.269014459999937,0]},"properties":{}},{"type":"Feature","geometry":{"type":"Point","coordinates":[106.99481654700008,-6.279608398999926,0]},"properties":{}},{"type":"Feature","geometry":{"type":"Point","coordinates":[106.98816571500004,-6.284161561999952,0]},"properties":{}},{"type":"Feature","geometry":{"type":"Point","coordinates":[106.97547866200006,-6.278411778999953,0]},"properties":{}},{"type":"Feature","geometry":{"type":"Point","coordinates":[106.94689061400004,-6.27804180399994,0]},"properties":{}},{"type":"Feature","geometry":{"type":"Point","coordinates":[106.94069272600007,-6.2836291829999595,0]},"properties":{}},{"type":"Feature","geometry":{"type":"Point","coordinates":[106.94417306800005,-6.290247636999936,0]},"properties":{}},{"type":"Feature","geometry":{"type":"Point","coordinates":[106.95935704800007,-6.293479401999946,0]},"properties":{}},{"type":"Feature","geometry":{"type":"Point","coordinates":[106.96728246400005,-6.294600066999976,0]},"properties":{}},{"type":"Feature","geometry":{"type":"Point","coordinates":[106.99942484000007,-6.299690615999964,0]},"properties":{}},{"type":"Feature","geometry":{"type":"Point","coordinates":[106.95756329700004,-6.300838207999959,0]},"properties":{}},{"type":"Feature","geometry":{"type":"Point","coordinates":[106.95384719100008,-6.309685520999949,0]},"properties":{}},{"type":"Feature","geometry":{"type":"Point","coordinates":[106.98130458200006,-6.311314483999979,0]},"properties":{}},{"type":"Feature","geometry":{"type":"Point","coordinates":[106.98109335500004,-6.310395645999961,0]},"properties":{}},{"type":"Feature","geometry":{"type":"Point","coordinates":[106.98194082400005,-6.310133037999947,0]},"properties":{}},{"type":"Feature","geometry":{"type":"Point","coordinates":[106.98690174000006,-6.311524782999925,0]},"properties":{}},{"type":"Feature","geometry":{"type":"Point","coordinates":[106.99363953900007,-6.314184607999948,0]},"properties":{}},{"type":"Feature","geometry":{"type":"Point","coordinates":[106.98234248200004,-6.326561075999962,0]},"properties":{}},{"type":"Feature","geometry":{"type":"Point","coordinates":[106.95059485300004,-6.3198673729999655,0]},"properties":{}},{"type":"Feature","geometry":{"type":"Point","coordinates":[106.95027283700006,-6.320696560999977,0]},"properties":{}},{"type":"Feature","geometry":{"type":"Point","coordinates":[106.94825151700007,-6.320355333999942,0]},"properties":{}},{"type":"Feature","geometry":{"type":"Point","coordinates":[106.94510984600004,-6.339995391999935,0]},"properties":{}},{"type":"Feature","geometry":{"type":"Point","coordinates":[106.94427425900005,-6.339784613999939,0]},"properties":{}},{"type":"Feature","geometry":{"type":"Point","coordinates":[106.98929003200004,-6.33205079399994,0]},"properties":{}},{"type":"Feature","geometry":{"type":"Point","coordinates":[106.98853934100003,-6.33260308399997,0]},"properties":{}},{"type":"Feature","geometry":{"type":"Point","coordinates":[106.93969696100004,-6.351450149999948,0]},"properties":{}},{"type":"Feature","geometry":{"type":"Point","coordinates":[106.98618313000009,-6.349026796999965,0]},"properties":{}},{"type":"Feature","geometry":{"type":"Point","coordinates":[106.92177465300006,-6.273938226999974,0]},"properties":{}},{"type":"Feature","geometry":{"type":"Point","coordinates":[106.98254012300004,-6.177174041999933,0]},"properties":{}},{"type":"Feature","geometry":{"type":"Point","coordinates":[106.99844276900006,-6.183659373999944,0]},"properties":{}},{"type":"Feature","geometry":{"type":"Point","coordinates":[106.99877089000006,-6.18938623899993,0]},"properties":{}},{"type":"Feature","geometry":{"type":"Point","coordinates":[106.98677790100004,-6.198320015999968,0]},"properties":{}},{"type":"Feature","geometry":{"type":"Point","coordinates":[106.99185767800009,-6.198278529999925,0]},"properties":{}},{"type":"Feature","geometry":{"type":"Point","coordinates":[106.97779032300008,-6.205032724999967,0]},"properties":{}},{"type":"Feature","geometry":{"type":"Point","coordinates":[106.98242045500007,-6.21324409999994,0]},"properties":{}},{"type":"Feature","geometry":{"type":"Point","coordinates":[106.98160819600008,-6.210830322999925,0]},"properties":{}},{"type":"Feature","geometry":{"type":"Point","coordinates":[106.96656361100008,-6.219010989999958,0]},"properties":{}},{"type":"Feature","geometry":{"type":"Point","coordinates":[106.96202127100008,-6.218756647999953,0]},"properties":{}},{"type":"Feature","geometry":{"type":"Point","coordinates":[106.95665764000006,-6.229690998999956,0]},"properties":{}},{"type":"Feature","geometry":{"type":"Point","coordinates":[106.96180491300004,-6.231418152999936,0]},"properties":{}},{"type":"Feature","geometry":{"type":"Point","coordinates":[106.99892970200005,-6.241471709999928,0]},"properties":{}},{"type":"Feature","geometry":{"type":"Point","coordinates":[106.98906368400009,-6.237767691999977,0]},"properties":{}},{"type":"Feature","geometry":{"type":"Point","coordinates":[106.96993818700008,-6.23942571799995,0]},"properties":{}},{"type":"Feature","geometry":{"type":"Point","coordinates":[106.94617377000009,-6.24822292999994,0]},"properties":{}},{"type":"Feature","geometry":{"type":"Point","coordinates":[106.96521600700004,-6.245940411999925,0]},"properties":{}},{"type":"Feature","geometry":{"type":"Point","coordinates":[106.98406484100008,-6.24801163199993,0]},"properties":{}}],"fileName":"PENDIDIKAN_PT_25K"}